*******************************************************************************
Ephemeris / WWW_USER Mon Jul 15 19:02:24 2024 Pasadena, USA      / Horizons    
*******************************************************************************
Target body name: (2018 RC)                       {source: JPL#21}
Center body name: Earth (399)                     {source: DE441}
Center-site name: Gemini South Obs., Cerro Pachon
*******************************************************************************
Start time      : A.D. 2018-Dec-19 23:52:00.0000 UT      
Stop  time      : A.D. 2018-Dec-20 09:28:00.0000 UT      
Step-size       : 1 minutes
*******************************************************************************
Target pole/equ : undefined
Target radii    : undefined                                                    
Center geodetic : 289.2634, -30.2406227, 2.71233  {E-lon(deg),Lat(deg),Alt(km)}
Center cylindric: 289.2634,5517.21435,-3194.81213 {E-lon(deg),Dxy(km),Dz(km)}
Center pole/equ : ITRF93                          {East-longitude positive}
Center radii    : 6378.137, 6378.137, 6356.752 km {Equator_a, b, pole_c}       
Target primary  : Sun
Vis. interferer : MOON (R_eq= 1737.400) km        {source: DE441}
Rel. light bend : Sun                             {source: DE441}
Rel. lght bnd GM: 1.3271E+11 km^3/s^2                                          
Small-body perts: Yes                             {source: SB441-N16}
Atmos refraction: NO (AIRLESS)
RA format       : HMS
Time format     : CAL 
Calendar mode   : Mixed Julian/Gregorian
RTS-only print  : NO       
EOP file        : eop.240715.p241008                                           
EOP coverage    : DATA-BASED 1962-JAN-20 TO 2024-JUL-15. PREDICTS-> 2024-OCT-07
Units conversion: 1 au= 149597870.700 km, c= 299792.458 km/s, 1 day= 86400.0 s 
Table cut-offs 1: Elevation (-90.0deg=NO ),Airmass (>38.000=NO), Daylight (YES)
Table cut-offs 2: Solar elongation (  0.0,180.0=NO ),Local Hour Angle( 0.0=NO )
Table cut-offs 3: RA/DEC angular rate (     0.0=NO )                           
*******************************************************************************
Initial IAU76/J2000 heliocentric ecliptic osculating elements (au, days, deg.):
  EPOCH=  2458369.5 ! 2018-Sep-08.00 (TDB)         Residual RMS= .84866        
   EC= .2426621660028976   QR= .647471518312811    TP= 2458473.8617576878      
   OM= 346.8893436915528   W=  145.8737085184167   IN= 1.612045057594462       
  Equivalent ICRF heliocentric cartesian coordinates (au, au/d):
   X= 9.781363708094483E-01  Y=-2.377942828764822E-01  Z=-1.040448782093900E-01
  VX= 1.501011538102481E-03 VY= 1.393070215815854E-02 VZ= 6.509326736836346E-03
Asteroid physical parameters (km, seconds, rotational period in hours):        
   GM= n.a.                RAD= n.a.               ROTPER= .16548              
   H= 24.93                G= .150                 B-V= n.a.                   
                           ALBEDO= n.a.            STYP= n.a.                  
*******************************************************************************
 Date__(UT)__HR:MN     R.A._________(ICRF)_________DEC
******************************************************
$$SOE
 2018-Dec-19 23:52 Cm  14 46 56.998848 -14 49 37.11114
 2018-Dec-19 23:53 Cm  14 46 57.142352 -14 49 37.92188
 2018-Dec-19 23:54 Cm  14 46 57.285864 -14 49 38.73267
 2018-Dec-19 23:55 Cm  14 46 57.429384 -14 49 39.54351
 2018-Dec-19 23:56 Cm  14 46 57.572913 -14 49 40.35440
 2018-Dec-19 23:57 Cm  14 46 57.716450 -14 49 41.16534
 2018-Dec-19 23:58 Cm  14 46 57.859994 -14 49 41.97634
 2018-Dec-19 23:59 Cm  14 46 58.003547 -14 49 42.78738
 2018-Dec-20 00:00 Cm  14 46 58.147108 -14 49 43.59848
 2018-Dec-20 00:01 Cm  14 46 58.290676 -14 49 44.40963
 2018-Dec-20 00:02 Cm  14 46 58.434252 -14 49 45.22083
 2018-Dec-20 00:03 Cm  14 46 58.577836 -14 49 46.03208
 2018-Dec-20 00:04 Cm  14 46 58.721428 -14 49 46.84338
 2018-Dec-20 00:05 Cm  14 46 58.865027 -14 49 47.65473
 2018-Dec-20 00:06 Cm  14 46 59.008634 -14 49 48.46614
 2018-Dec-20 00:07 Cm  14 46 59.152248 -14 49 49.27760
 2018-Dec-20 00:08 Cm  14 46 59.295869 -14 49 50.08911
 2018-Dec-20 00:09 Cm  14 46 59.439498 -14 49 50.90067
 2018-Dec-20 00:10 Cm  14 46 59.583134 -14 49 51.71229
 2018-Dec-20 00:11 Nm  14 46 59.726777 -14 49 52.52396
 2018-Dec-20 00:12 Nm  14 46 59.870428 -14 49 53.33568
 2018-Dec-20 00:13 Nm  14 47 00.014085 -14 49 54.14745
 2018-Dec-20 00:14 Nm  14 47 00.157749 -14 49 54.95927
 2018-Dec-20 00:15 Nm  14 47 00.301421 -14 49 55.77115
 2018-Dec-20 00:16 Nm  14 47 00.445099 -14 49 56.58308
 2018-Dec-20 00:17 Nm  14 47 00.588784 -14 49 57.39507
 2018-Dec-20 00:18 Nm  14 47 00.732476 -14 49 58.20711
 2018-Dec-20 00:19 Nm  14 47 00.876174 -14 49 59.01920
 2018-Dec-20 00:20 Nm  14 47 01.019879 -14 49 59.83134
 2018-Dec-20 00:21 Nm  14 47 01.163590 -14 50 00.64354
 2018-Dec-20 00:22 Nm  14 47 01.307308 -14 50 01.45579
 2018-Dec-20 00:23 Nm  14 47 01.451032 -14 50 02.26809
 2018-Dec-20 00:24 Nm  14 47 01.594763 -14 50 03.08045
 2018-Dec-20 00:25 Nm  14 47 01.738500 -14 50 03.89286
 2018-Dec-20 00:26 Nm  14 47 01.882243 -14 50 04.70533
 2018-Dec-20 00:27 Nm  14 47 02.025992 -14 50 05.51785
 2018-Dec-20 00:28 Nm  14 47 02.169747 -14 50 06.33042
 2018-Dec-20 00:29 Nm  14 47 02.313508 -14 50 07.14305
 2018-Dec-20 00:30 Nm  14 47 02.457275 -14 50 07.95573
 2018-Dec-20 00:31 Nm  14 47 02.601048 -14 50 08.76847
 2018-Dec-20 00:32 Nm  14 47 02.744827 -14 50 09.58126
 2018-Dec-20 00:33 Nm  14 47 02.888611 -14 50 10.39410
 2018-Dec-20 00:34 Nm  14 47 03.032401 -14 50 11.20700
 2018-Dec-20 00:35 Nm  14 47 03.176197 -14 50 12.01995
 2018-Dec-20 00:36 Nm  14 47 03.319998 -14 50 12.83296
 2018-Dec-20 00:37 Nm  14 47 03.463805 -14 50 13.64602
 2018-Dec-20 00:38 Nm  14 47 03.607616 -14 50 14.45914
 2018-Dec-20 00:39 Nm  14 47 03.751434 -14 50 15.27231
 2018-Dec-20 00:40 Nm  14 47 03.895256 -14 50 16.08554
 2018-Dec-20 00:41 Nm  14 47 04.039084 -14 50 16.89882
 2018-Dec-20 00:42 Nm  14 47 04.182916 -14 50 17.71215
 2018-Dec-20 00:43 Nm  14 47 04.326754 -14 50 18.52554
 2018-Dec-20 00:44 Nm  14 47 04.470597 -14 50 19.33899
 2018-Dec-20 00:45 Am  14 47 04.614444 -14 50 20.15249
 2018-Dec-20 00:46 Am  14 47 04.758297 -14 50 20.96605
 2018-Dec-20 00:47 Am  14 47 04.902154 -14 50 21.77966
 2018-Dec-20 00:48 Am  14 47 05.046016 -14 50 22.59333
 2018-Dec-20 00:49 Am  14 47 05.189882 -14 50 23.40705
 2018-Dec-20 00:50 Am  14 47 05.333753 -14 50 24.22083
 2018-Dec-20 00:51 Am  14 47 05.477628 -14 50 25.03466
 2018-Dec-20 00:52 Am  14 47 05.621508 -14 50 25.84855
 2018-Dec-20 00:53 Am  14 47 05.765392 -14 50 26.66249
 2018-Dec-20 00:54 Am  14 47 05.909281 -14 50 27.47649
 2018-Dec-20 00:55 Am  14 47 06.053174 -14 50 28.29055
 2018-Dec-20 00:56 Am  14 47 06.197070 -14 50 29.10466
 2018-Dec-20 00:57 Am  14 47 06.340971 -14 50 29.91882
 2018-Dec-20 00:58 Am  14 47 06.484876 -14 50 30.73305
 2018-Dec-20 00:59 Am  14 47 06.628785 -14 50 31.54732
 2018-Dec-20 01:00 Am  14 47 06.772697 -14 50 32.36166
 2018-Dec-20 01:01 Am  14 47 06.916613 -14 50 33.17605
 2018-Dec-20 01:02 Am  14 47 07.060533 -14 50 33.99049
 2018-Dec-20 01:03 Am  14 47 07.204457 -14 50 34.80500
 2018-Dec-20 01:04 Am  14 47 07.348384 -14 50 35.61955
 2018-Dec-20 01:05 Am  14 47 07.492315 -14 50 36.43417
 2018-Dec-20 01:06 Am  14 47 07.636249 -14 50 37.24884
 2018-Dec-20 01:07 Am  14 47 07.780187 -14 50 38.06357
 2018-Dec-20 01:08 Am  14 47 07.924127 -14 50 38.87835
 2018-Dec-20 01:09 Am  14 47 08.068071 -14 50 39.69319
 2018-Dec-20 01:10 Am  14 47 08.212019 -14 50 40.50808
 2018-Dec-20 01:11 Am  14 47 08.355969 -14 50 41.32303
 2018-Dec-20 01:12 Am  14 47 08.499922 -14 50 42.13804
 2018-Dec-20 01:13 Am  14 47 08.643878 -14 50 42.95310
 2018-Dec-20 01:14 Am  14 47 08.787837 -14 50 43.76822
 2018-Dec-20 01:15 Am  14 47 08.931799 -14 50 44.58340
 2018-Dec-20 01:16 Am  14 47 09.075764 -14 50 45.39863
 2018-Dec-20 01:17 Am  14 47 09.219731 -14 50 46.21392
 2018-Dec-20 01:18 Am  14 47 09.363701 -14 50 47.02927
 2018-Dec-20 01:19 Am  14 47 09.507673 -14 50 47.84467
 2018-Dec-20 01:20 Am  14 47 09.651648 -14 50 48.66013
 2018-Dec-20 01:21  m  14 47 09.795625 -14 50 49.47564
 2018-Dec-20 01:22  m  14 47 09.939604 -14 50 50.29122
 2018-Dec-20 01:23  m  14 47 10.083586 -14 50 51.10685
 2018-Dec-20 01:24  m  14 47 10.227569 -14 50 51.92253
 2018-Dec-20 01:25  m  14 47 10.371555 -14 50 52.73827
 2018-Dec-20 01:26  m  14 47 10.515543 -14 50 53.55407
 2018-Dec-20 01:27  m  14 47 10.659533 -14 50 54.36992
 2018-Dec-20 01:28  m  14 47 10.803525 -14 50 55.18584
 2018-Dec-20 01:29  m  14 47 10.947518 -14 50 56.00180
 2018-Dec-20 01:30  m  14 47 11.091513 -14 50 56.81783
 2018-Dec-20 01:31  m  14 47 11.235510 -14 50 57.63391
 2018-Dec-20 01:32  m  14 47 11.379509 -14 50 58.45005
 2018-Dec-20 01:33  m  14 47 11.523509 -14 50 59.26624
 2018-Dec-20 01:34  m  14 47 11.667510 -14 51 00.08249
 2018-Dec-20 01:35  m  14 47 11.811513 -14 51 00.89880
 2018-Dec-20 01:36  m  14 47 11.955517 -14 51 01.71516
 2018-Dec-20 01:37  m  14 47 12.099523 -14 51 02.53158
 2018-Dec-20 01:38  m  14 47 12.243529 -14 51 03.34806
 2018-Dec-20 01:39  m  14 47 12.387537 -14 51 04.16460
 2018-Dec-20 01:40  m  14 47 12.531546 -14 51 04.98119
 2018-Dec-20 01:41  m  14 47 12.675555 -14 51 05.79783
 2018-Dec-20 01:42  m  14 47 12.819566 -14 51 06.61454
 2018-Dec-20 01:43  m  14 47 12.963577 -14 51 07.43130
 2018-Dec-20 01:44  m  14 47 13.107589 -14 51 08.24812
 2018-Dec-20 01:45  m  14 47 13.251602 -14 51 09.06499
 2018-Dec-20 01:46  m  14 47 13.395616 -14 51 09.88192
 2018-Dec-20 01:47  m  14 47 13.539630 -14 51 10.69891
 2018-Dec-20 01:48  m  14 47 13.683644 -14 51 11.51595
 2018-Dec-20 01:49  m  14 47 13.827659 -14 51 12.33305
 2018-Dec-20 01:50  m  14 47 13.971674 -14 51 13.15021
 2018-Dec-20 01:51  m  14 47 14.115689 -14 51 13.96742
 2018-Dec-20 01:52  m  14 47 14.259705 -14 51 14.78469
 2018-Dec-20 01:53  m  14 47 14.403720 -14 51 15.60202
 2018-Dec-20 01:54  m  14 47 14.547736 -14 51 16.41940
